H1 CPF 01  gfz 2021 05 22 00  6421 terrasarx 
H2 0702601  6201 31698    2021 05 22 00 59 42 2021 05 27 00 00 42   120 1 1  0 0 0
H9
10 0 59356  69822.000000  0   -4003491.070   2223933.738  -5153286.636
10 0 59356  69942.000000  0   -3282147.499   2064945.405  -5700704.727
10 0 59356  70062.000000  0   -2507055.307   1857027.107  -6148484.931
10 0 59356  70182.000000  0   -1692535.111   1603000.482  -6488894.950
10 0 59356  70302.000000  0    -853502.392   1306730.419  -6716069.250
10 0 59356  70422.000000  0      -5197.782    973065.648  -6826099.227
10 0 59356  70542.000000  0     837083.147    607760.328  -6817092.549
10 0 59356  70662.000000  0    1658259.035    217376.971  -6689204.482
10 0 59356  70782.000000  0    2443727.616   -190828.999  -6444634.904
10 0 59356  70902.000000  0    3179619.760   -609040.064  -6087594.753
10 0 59356  71022.000000  0    3853041.850  -1029021.858  -5624240.422
10 0 59356  71142.000000  0    4452300.741  -1442280.171  -5062578.098
10 0 59356  71262.000000  0    4967111.302  -1840229.310  -4412337.593
10 0 59356  71382.000000  0    5388779.954  -2214367.470  -3684814.397
10 0 59356  71502.000000  0    5710361.122  -2556455.521  -2892682.527
10 0 59356  71622.000000  0    5926782.602  -2858695.754  -2049779.248
10 0 59356  71742.000000  0    6034935.391  -3113906.168  -1170865.174
10 0 59356  71862.000000  0    6033726.262  -3315686.013   -271364.660
10 0 59356  71982.000000  0    5924090.543  -3458568.611    632909.736
10 0 59356  72102.000000  0    5708964.824  -3538157.393   1526042.211
10 0 59356  72222.000000  0    5393218.432  -3551240.786   2392304.261
10 0 59356  72342.000000  0    4983544.080  -3495882.018   3216440.000
10 0 59356  72462.000000  0    4488313.914  -3371482.836   3983941.794
10 0 59356  72582.000000  0    3917404.222  -3178819.036   4681309.811
10 0 59356  72702.000000  0    3281992.021  -2920048.840   5296292.647
10 0 59356  72822.000000  0    2594328.281  -2598691.263   5818101.264
10 0 59356  72942.000000  0    1867495.821  -2219576.994   6237594.416
10 0 59356  73062.000000  0    1115155.611  -1788773.627   6547433.268
10 0 59356  73182.000000  0     351286.997  -1313486.128   6742203.719
10 0 59356  73302.000000  0    -410073.075   -801934.265   6818505.113
10 0 59356  73422.000000  0   -1155087.319   -263209.526   6775005.139
10 0 59356  73542.000000  0   -1870368.332    292886.116   6612461.540
10 0 59356  73662.000000  0   -2543218.204    856018.000   6333709.892
10 0 59356  73782.000000  0   -3161854.077   1415509.816   5943617.564
10 0 59356  73902.000000  0   -3715616.331   1960545.072   5449004.507
10 0 59356  74022.000000  0   -4195156.760   2480376.388   4858530.922
10 0 59356  74142.000000  0   -4592602.585   2964539.208   4182551.382
10 0 59356  74262.000000  0   -4901692.365   3403063.856   3432936.598
10 0 59356  74382.000000  0   -5117880.517   3786682.910   2622867.128
10 0 59356  74502.000000  0   -5238408.853   4107029.324   1766601.437
10 0 59356  74622.000000  0   -5262343.212   4356820.246    879220.920
10 0 59356  74742.000000  0   -5190571.923   4530020.535    -23643.182
10 0 59356  74862.000000  0   -5025767.564   4621981.747   -926092.760
10 0 59356  74982.000000  0   -4772313.049   4629554.935  -1812252.439
10 0 59356  75102.000000  0   -4436191.835   4551172.209  -2666558.422
10 0 59356  75222.000000  0   -4024846.884   4386894.397  -3474038.522
10 0 59356  75342.000000  0   -3547011.957   4138425.561  -4220577.377
10 0 59356  75462.000000  0   -3012521.004   3809094.739  -4893161.187
10 0 59356  75582.000000  0   -2432101.709   3403806.349  -5480098.077
10 0 59356  75702.000000  0   -1817158.080   2928962.045  -5971213.444
10 0 59356  75822.000000  0   -1179544.459   2392353.598  -6358016.889
10 0 59356  75942.000000  0    -531337.338   1803030.155  -6633837.057
10 0 59356  76062.000000  0     115390.291   1171144.279  -6793925.442
10 0 59356  76182.000000  0     748788.311    507778.161  -6835529.371
10 0 59356  76302.000000  0    1357441.897   -175246.981  -6757935.556
10 0 59356  76422.000000  0    1930572.880   -865577.536  -6562479.738
10 0 59356  76542.000000  0    2458225.662  -1550544.976  -6252525.723
10 0 59356  76662.000000  0    2931437.811  -2217392.464  -5833413.768
10 0 59356  76782.000000  0    3342392.035  -2853507.584  -5312379.420
10 0 59356  76902.000000  0    3684548.974  -3446660.973  -4698440.140
10 0 59356  77022.000000  0    3952754.561  -3985242.124  -4002248.110
10 0 59356  77142.000000  0    4143321.550  -4458488.294  -3235915.826
10 0 59356  77262.000000  0    4254085.068  -4856704.282  -2412813.761
10 0 59356  77382.000000  0    4284429.178  -5171467.317  -1547341.190
10 0 59356  77502.000000  0    4235281.273  -5395811.098   -654673.798
10 0 59356  77622.000000  0    4109075.706  -5524382.990    249506.433
10 0 59356  77742.000000  0    3909686.092  -5553571.032   1149293.230
10 0 59356  77862.000000  0    3642328.627  -5481596.752   2028844.904
10 0 59356  77982.000000  0    3313436.968  -5308569.546   2872672.652
10 0 59356  78102.000000  0    2930513.161  -5036504.018   3665920.335
10 0 59356  78222.000000  0    2501959.206  -4669298.258   4394631.860
10 0 59356  78342.000000  0    2036893.377  -4212674.448   5045999.982
10 0 59356  78462.000000  0    1544955.415  -3674083.318   5608591.613
10 0 59356  78582.000000  0    1036105.379  -3062574.965   6072546.690
10 0 59356  78702.000000  0     520420.271  -2388639.309   6429745.448
10 0 59356  78822.000000  0       7894.085  -1664020.993   6673943.470
10 0 59356  78942.000000  0    -491754.863   -901512.229   6800874.677
10 0 59356  79062.000000  0    -969266.938   -114725.265   6808322.324
10 0 59356  79182.000000  0   -1416011.935    682151.005   6696155.066
10 0 59356  79302.000000  0   -1824144.545   1474606.321   6466328.852
10 0 59356  79422.000000  0   -2186742.271   2248072.240   6122855.021
10 0 59356  79542.000000  0   -2497923.716   2988189.785   5671734.714
10 0 59356  79662.000000  0   -2752945.195   3681077.387   5120860.115
10 0 59356  79782.000000  0   -2948275.409   4313594.864   4479883.358
10 0 59356  79902.000000  0   -3081645.389   4873598.549   3760052.576
10 0 59356  80022.000000  0   -3152072.431   5350182.095   2974017.512
10 0 59356  80142.000000  0   -3159857.103   5733896.527   2135606.959
10 0 59356  80262.000000  0   -3106553.886   6016944.044   1259582.816
10 0 59356  80382.000000  0   -2994915.297   6193341.894    361375.559
10 0 59356  80502.000000  0   -2828810.969   6259052.025   -543194.975
10 0 59356  80622.000000  0   -2613124.346   6212071.994  -1438207.848
10 0 59356  80742.000000  0   -2353627.803   6052483.385  -2307932.842
10 0 59356  80862.000000  0   -2056838.908   5782454.726  -3137114.449
10 0 59356  80982.000000  0   -1729864.851   5406205.250  -3911241.658
10 0 59356  81102.000000  0   -1380238.706   4929928.718  -4616802.374
10 0 59356  81222.000000  0   -1015751.315   4361679.741  -5241514.883
10 0 59356  81342.000000  0    -644282.672   3711227.959  -5774534.803
10 0 59356  81462.000000  0    -273635.601   2989881.193  -6206635.124
10 0 59356  81582.000000  0      88624.174   2210281.446  -6530354.849
10 0 59356  81702.000000  0     435317.525   1386180.940  -6740115.750
10 0 59356  81822.000000  0     759789.530    532200.685  -6832309.687
10 0 59356  81942.000000  0    1056033.602   -336425.244  -6805353.739
10 0 59356  82062.000000  0    1318799.337  -1204116.393  -6659713.561
10 0 59356  82182.000000  0    1543682.906  -2055217.899  -6397894.814
10 0 59356  82302.000000  0    1727199.880  -2874275.293  -6024405.431
10 0 59356  82422.000000  0    1866839.332  -3646310.559  -5545687.840
10 0 59356  82542.000000  0    1961097.666  -4357096.726  -4970018.594
10 0 59356  82662.000000  0    2009491.722  -4993421.456  -4307374.719
10 0 59356  82782.000000  0    2012551.166  -5543337.011  -3569272.001
10 0 59356  82902.000000  0    1971789.569  -5996393.692  -2768574.064
10 0 59356  83022.000000  0    1889653.876  -6343849.792  -1919273.863
10 0 59356  83142.000000  0    1769453.399  -6578850.982  -1036250.181
10 0 59356  83262.000000  0    1615270.891  -6696576.914   -135005.631
10 0 59356  83382.000000  0    1431856.578  -6694347.263    768612.672
10 0 59356  83502.000000  0    1224507.298  -6571686.197   1658698.001
10 0 59356  83622.000000  0     998934.225  -6330343.334   2519574.748
10 0 59356  83742.000000  0     761122.896  -5974266.715   3336083.451
10 0 59356  83862.000000  0     517187.666  -5509532.809   4093854.127
10 0 59356  83982.000000  0     273226.243  -4944235.211   4779562.893
10 0 59356  84102.000000  0      35176.969  -4288334.287   5381167.821
10 0 59356  84222.000000  0    -191317.089  -3553471.606   5888119.036
10 0 59356  84342.000000  0    -401034.058  -2752753.285   6291540.106
10 0 59356  84462.000000  0    -589287.524  -1900508.670   6584375.968
10 0 59356  84582.000000  0    -752026.378  -1012031.064   6761509.594
10 0 59356  84702.000000  0    -885918.661   -103301.760   6819847.385
10 0 59356  84822.000000  0    -988418.400    809298.277   6758370.332
10 0 59356  84942.000000  0   -1057813.395   1709283.399   6578150.467
10 0 59356  85062.000000  0   -1093253.474   2580360.349   6282333.247
10 0 59356  85182.000000  0   -1094759.564   3406723.198   5876086.268
10 0 59356  85302.000000  0   -1063213.271   4173342.132   5366514.156
10 0 59356  85422.000000  0   -1000326.211   4866240.514   4762540.486
10 0 59356  85542.000000  0    -908591.185   5472757.123   4074757.496
10 0 59356  85662.000000  0    -791214.306   5981785.426   3315243.322
10 0 59356  85782.000000  0    -652031.682   6383986.717   2497354.210
10 0 59356  85902.000000  0    -495410.578   6671974.170   1635486.897
10 0 59356  86022.000000  0    -326136.151   6840455.911    744819.672
10 0 59356  86142.000000  0    -149288.591   6886337.945   -158961.297
10 0 59356  86262.000000  0      29886.811   6808784.408  -1059946.644
99
